ORBCOMM-X [-]           
1 21576U 91050C   23300.16193456  .00000519  00000+0  17070-3 0  9991
2 21576  98.4215   5.8451 0003640 176.8755 183.2458 14.42226830695741
ORBCOMM FM01 [-]        
1 23545U 95017A   23300.48588132  .00007010  00000+0  10034-2 0  9995
2 23545  69.9662 110.1991 0004301 179.0940 181.0216 14.76978879523756
ORBCOMM FM02 [-]        
1 23546U 95017B   23300.52776164  .00005256  00000+0  76365-3 0  9995
2 23546  69.9679 129.1674 0005840 159.9524 200.1854 14.76501829523418
ORBCOMM FM08 [-]        
1 25112U 97084A   23300.46433546  .00002343  00000+0  75914-3 0  9992
2 25112  45.0160 351.3445 0005684 118.4221 241.7203 14.41453434354864
ORBCOMM FM10 [-]        
1 25113U 97084B   23300.53074201  .00001867  00000+0  61455-3 0  9995
2 25113  45.0174 352.7538 0002921  79.5365 280.5814 14.41393184530023
ORBCOMM FM11 [+]        
1 25114U 97084C   23300.53389453  .00002061  00000+0  67541-3 0  9993
2 25114  45.0158 352.6593 0003668  79.9767 280.1496 14.41279620354995
ORBCOMM FM12 [-]        
1 25115U 97084D   23300.55951248  .00001942  00000+0  63908-3 0  9993
2 25115  45.0166 352.1813 0002697  83.5285 276.5872 14.41266455354799
ORBCOMM FM09 [-]        
1 25116U 97084E   23300.56655399  .00001908  00000+0  62900-3 0  9996
2 25116  45.0171 352.7822 0003936  57.3774 302.7455 14.41243088355002
